[{"OBJECT_NAME":"STARLINK-31315","OBJECT_ID":"2024-020J","EPOCH":"2026-03-09T22:39:40.717728","MEAN_MOTION":15.30173889,"ECCENTRICITY":0.00011676,"INCLINATION":53.1606,"RA_OF_ASC_NODE":295.2866,"ARG_OF_PERICENTER":97.673,"MEAN_ANOMALY":262.4403,"EPHEMERIS_TYPE":0,"CLASSIFICATION_TYPE":"U","NORAD_CAT_ID":58884,"ELEMENT_SET_NO":999,"REV_AT_EPOCH":11847,"BSTAR":-5.8099467e-5,"MEAN_MOTION_DOT":-2.078e-5,"MEAN_MOTION_DDOT":0},{"OBJECT_NAME":"LUR-1","OBJECT_ID":"2024-149AQ","EPOCH":"2026-03-09T19:05:45.284064","MEAN_MOTION":15.28658648,"ECCENTRICITY":0.00027765,"INCLINATION":97.379,"RA_OF_ASC_NODE":148.4255,"ARG_OF_PERICENTER":309.1571,"MEAN_ANOMALY":50.9421,"EPHEMERIS_TYPE":0,"CLASSIFICATION_TYPE":"U","NORAD_CAT_ID":60506,"ELEMENT_SET_NO":999,"REV_AT_EPOCH":8678,"BSTAR":0.0003298462,"MEAN_MOTION_DOT":9.121e-5,"MEAN_MOTION_DDOT":0}]
